1 31789U 07028A   23033.51750760  .00009163  00000+0  38583-3 0  9995
2 31789  64.4956  78.1033 0059735 281.0419  78.3991 15.22282737860886
1 53413U 22097AB  23033.32551953  .00001113  00000+0  88028-4 0  9995
2 53413  53.2166 153.0131 0001267  77.6895 282.4239 15.08832407 27853